[{"OBJECT_NAME":"TOMORROW-S2","OBJECT_ID":"2024-149T","EPOCH":"2026-03-09T18:02:42.746496","MEAN_MOTION":15.30674935,"ECCENTRICITY":0.0001648,"INCLINATION":97.3857,"RA_OF_ASC_NODE":150.0385,"ARG_OF_PERICENTER":234.3331,"MEAN_ANOMALY":125.7757,"EPHEMERIS_TYPE":0,"CLASSIFICATION_TYPE":"U","NORAD_CAT_ID":60485,"ELEMENT_SET_NO":999,"REV_AT_EPOCH":8686,"BSTAR":0.00027683033,"MEAN_MOTION_DOT":8.133e-5,"MEAN_MOTION_DDOT":0},{"OBJECT_NAME":"STARLINK-32618","OBJECT_ID":"2024-216P","EPOCH":"2026-03-09T19:42:41.482944","MEAN_MOTION":15.27578686,"ECCENTRICITY":0.00017489,"INCLINATION":43.0003,"RA_OF_ASC_NODE":255.7603,"ARG_OF_PERICENTER":269.1618,"MEAN_ANOMALY":90.9034,"EPHEMERIS_TYPE":0,"CLASSIFICATION_TYPE":"U","NORAD_CAT_ID":62045,"ELEMENT_SET_NO":999,"REV_AT_EPOCH":7389,"BSTAR":0.00085364366,"MEAN_MOTION_DOT":0.00023302,"MEAN_MOTION_DDOT":0}]
